NORAD_CAT_ID,OBJECT_NAME,OBJECT_TYPE,EPOCH,MEAN_MOTION,ECCENTRICITY,INCLINATION,RA_OF_ASC_NODE,ARG_OF_PERICENTER,MEAN_ANOMALY,BSTAR,MEAN_MOTION_DOT,MEAN_MOTION_DDOT,TLE_LINE0,TLE_LINE1,TLE_LINE2,SEMIMAJOR_AXIS,PERIOD,APOGEE,PERIGEE,DECAYED
52122.0,STARLINK-3726,PAYLOAD,2022-10-24 03:02:32,15.08857384,0.0001862,53.218,212.3132,51.4201,308.6958,0.00013559,1.871e-05,0.0,0 STARLINK-3726,1 52122U 22029AL  22297.12676388  .00001871  00000-0  13559-3 0  9993,2 52122  53.2180 212.3132 0001862  51.4201 308.6958 15.08857384 34710,6917.8269999999975,95.436,540.98,538.404,0.0
52122.0,STARLINK-3726,PAYLOAD,2022-10-24 04:37:55,15.08853359,0.0001851999999999,53.2179,212.0174,47.8669,312.248,6.225600000000001e-05,7.03e-06,0.0,0 STARLINK-3726,1 52122U 22029AL  22297.19300505  .00000703  00000-0  62256-4 0  9997,2 52122  53.2179 212.0174 0001852  47.8669 312.2480 15.08853359 34727,6917.84,95.437,540.986,538.423,0.0
52122.0,STARLINK-3726,PAYLOAD,2022-10-25 02:53:20,15.08839037,0.0001861,53.2189,207.8531,50.5932,309.5225,-0.00010957,-2.032e-05,0.0,0 STARLINK-3726,1 52122U 22029AL  22298.12037781 -.00002032  00000-0 -10957-3 0  9993,2 52122  53.2189 207.8531 0001861  50.5932 309.5225 15.08839037 34869,6917.8830000000025,95.438,541.036,538.461,0.0
52122.0,STARLINK-3726,PAYLOAD,2022-10-25 10:50:16,15.08840976,0.0001891,53.2189,206.3662,49.3875,310.7282,-2.8724e-05,-7.45e-06,0.0,0 STARLINK-3726,1 52122U 22029AL  22298.45157448 -.00000745  00000-0 -28724-4 0  9993,2 52122  53.2189 206.3662 0001891  49.3875 310.7282 15.08840976 34910,6917.877,95.437,541.0509999999998,538.434,0.0
52122.0,STARLINK-3726,PAYLOAD,2022-10-26 10:41:03,15.08842657,0.0001806,53.2188,201.9059,51.8729,308.2426,-5.543e-05,-1.17e-05,0.0,0 STARLINK-3726,1 52122U 22029AL  22299.44517522 -.00001170  00000-0 -55430-4 0  9993,2 52122  53.2188 201.9059 0001806  51.8729 308.2426 15.08842657 35069,6917.871999999999,95.437,540.987,538.488,0.0
52122.0,STARLINK-3726,PAYLOAD,2022-10-27 02:34:55,15.08829448,0.0001835,53.2187,198.9325,51.0864,309.0291,5.993100000000001e-05,6.66e-06,0.0,0 STARLINK-3726,1 52122U 22029AL  22300.10758622  .00000666  00000-0  59931-4 0  9994,2 52122  53.2187 198.9325 0001835  51.0864 309.0291 15.08829448 35166,6917.913000000001,95.438,541.047,538.508,0.0
52122.0,STARLINK-3726,PAYLOAD,2022-10-27 10:31:50,15.08837173,0.0001809,53.2187,197.4458,52.1243,307.9912,0.00011361,1.52e-05,0.0,0 STARLINK-3726,1 52122U 22029AL  22300.43878160  .00001520  00000-0  11361-3 0  9994,2 52122  53.2187 197.4458 0001809  52.1243 307.9912 15.08837173 35218,6917.889,95.438,541.005,538.503,0.0
52122.0,STARLINK-3726,PAYLOAD,2022-10-28 00:50:17,15.08850778,0.0001916,53.2188,194.7695,53.6517,306.4651,0.00025467,3.768e-05,0.0,0 STARLINK-3726,1 52122U 22029AL  22301.03493012  .00003768  00000-0  25467-3 0  9998,2 52122  53.2188 194.7695 0001916  53.6517 306.4651 15.08850778 35301,6917.847,95.437,541.038,538.387,0.0
52122.0,STARLINK-3726,PAYLOAD,2022-10-28 10:22:37,15.08847475,0.0001855,53.2183,192.9853,54.824,305.2925,0.00019287,2.783e-05,0.0,0 STARLINK-3726,1 52122U 22029AL  22301.43237381  .00002783  00000-0  19287-3 0  9996,2 52122  53.2183 192.9853 0001855  54.8240 305.2925 15.08847475 35367,6917.858,95.437,541.006,538.439,0.0
52122.0,STARLINK-3726,PAYLOAD,2022-10-29 02:16:28,15.0884772,0.0001885,53.2172,190.0132,52.7902,307.3262,0.00015997,2.259e-05,0.0,0 STARLINK-3726,1 52122U 22029AL  22302.09477556  .00002259  00000-0  15997-3 0  9991,2 52122  53.2172 190.0132 0001885  52.7902 307.3262 15.08847720 35460,6917.857,95.437,541.026,538.418,0.0
52122.0,STARLINK-3726,PAYLOAD,2022-10-29 16:34:56,15.08845457,0.0002024,53.2172,187.3387,51.8024,308.315,2.2886e-06,-2.52e-06,0.0,0 STARLINK-3726,1 52122U 22029AL  22302.69093477 -.00000252  00000-0  22886-5 0  9992,2 52122  53.2172 187.3387 0002024  51.8024 308.3150 15.08845457 35554,6917.864000000001,95.437,541.129,538.3290000000002,0.0
52122.0,STARLINK-3726,PAYLOAD,2022-10-29 22:56:29,15.08839506,0.0001948,53.2169,186.1474,48.6134,311.5025,-0.00012279,-2.242e-05,0.0,0 STARLINK-3726,1 52122U 22029AL  22302.95589777 -.00002242  00000-0 -12279-3 0  9999,2 52122  53.2169 186.1474 0001948  48.6134 311.5025 15.08839506 35593,6917.882,95.438,541.095,538.399,0.0
52122.0,STARLINK-3726,PAYLOAD,2022-10-30 21:11:54,15.08832189,0.0001704,53.2185,181.9835,54.7115,305.4036,-2.3479e-05,-6.62e-06,0.0,0 STARLINK-3726,1 52122U 22029AL  22303.88326531 -.00000662  00000-0 -23479-4 0  9998,2 52122  53.2185 181.9835 0001704  54.7115 305.4036 15.08832189 35732,6917.904,95.438,540.948,538.59,0.0
52122.0,STARLINK-3726,PAYLOAD,2022-10-31 03:33:27,15.08827292,0.0001873,53.2179,180.7953,47.0438,313.0711,-7.8637e-05,-1.539e-05,0.0,0 STARLINK-3726,1 52122U 22029AL  22304.14823184 -.00001539  00000-0 -78637-4 0  9994,2 52122  53.2179 180.7953 0001873  47.0438 313.0711 15.08827292 35771,6917.919,95.438,541.08,538.489,0.0
52122.0,STARLINK-3726,PAYLOAD,2022-10-31 19:27:18,15.08828118,0.00016,53.2177,177.8218,50.3957,309.7177,5.6023e-05,6.03e-06,0.0,0 STARLINK-3726,1 52122U 22029AL  22304.81063198  .00000603  00000-0  56023-4 0  9993,2 52122  53.2177 177.8218 0001600  50.3957 309.7177 15.08828118 35878,6917.917,95.438,540.889,538.675,0.0
52122.0,STARLINK-3726,PAYLOAD,2022-11-01 01:48:50,15.08835346,0.0001754,53.2184,176.6325,52.3079,307.8072,0.00010402,1.368e-05,0.0,0 STARLINK-3726,1 52122U 22029AL  22305.07558859  .00001368  00000-0  10402-3 0  9994,2 52122  53.2184 176.6325 0001754  52.3079 307.8072 15.08835346 35918,6917.895,95.438,540.9730000000002,538.5459999999998,0.0
52122.0,STARLINK-3726,PAYLOAD,2022-11-02 08:01:10,15.08837174,0.0001682,53.2178,170.982,49.0745,311.0392,3.2451e-05,2.28e-06,0.0,0 STARLINK-3726,1 52122U 22029AL  22306.33415463  .00000228  00000-0  32451-4 0  9990,2 52122  53.2178 170.9820 0001682  49.0745 311.0392 15.08837174 36106,6917.889,95.438,540.918,538.59,0.0
52122.0,STARLINK-3726,PAYLOAD,2022-11-03 01:30:25,15.08840179,0.0001702,53.2173,167.7105,51.1502,308.9642,9.3859e-05,1.206e-05,0.0,0 STARLINK-3726,1 52122U 22029AL  22307.06279399  .00001206  00000-0  93859-4 0  9993,2 52122  53.2173 167.7105 0001702  51.1502 308.9642 15.08840179 36213,6917.88,95.438,540.922,538.567,0.0
52122.0,STARLINK-3726,PAYLOAD,2022-11-03 17:24:18,15.08825855,0.0002227,53.2157,164.7419,46.4076,313.71,4.347600000000001e-07,-2.81e-06,0.0,0 STARLINK-3726,1 52122U 22029AL  22307.72520983 -.00000281  00000-0  43476-6 0  9999,2 52122  53.2157 164.7419 0002227  46.4076 313.7100 15.08825855 36314,6917.924,95.438,541.3290000000002,538.248,0.0
52122.0,STARLINK-3726,PAYLOAD,2022-11-04 07:42:45,15.088427800000002,0.0001991,53.216,162.0588,52.2882,307.8291,0.00012251,1.662e-05,0.0,0 STARLINK-3726,1 52122U 22029AL  22308.32135905  .00001662  00000-0  12251-3 0  9999,2 52122  53.2160 162.0588 0001991  52.2882 307.8291 15.08842780 36404,6917.871999999999,95.437,541.114,538.36,0.0
52122.0,STARLINK-3726,PAYLOAD,2022-11-04 14:04:17,15.0884636,0.0001919,53.2172,160.8706,50.2775,309.8386,0.0001607,2.271e-05,0.0,0 STARLINK-3726,1 52122U 22029AL  22308.58631677  .00002271  00000-0  16070-3 0  9994,2 52122  53.2172 160.8706 0001919  50.2775 309.8386 15.08846360 36443,6917.861,95.437,541.053,538.398,0.0
52122.0,STARLINK-3726,PAYLOAD,2022-11-04 20:25:50,15.08848438,0.0002309,53.2153,159.6841,53.5074,306.613,0.00024712,3.648e-05,0.0,0 STARLINK-3726,1 52122U 22029AL  22308.85127720  .00003648  00000-0  24712-3 0  9994,2 52122  53.2153 159.6841 0002309  53.5074 306.6130 15.08848438 36484,6917.855,95.437,541.317,538.122,0.0
52122.0,STARLINK-3726,PAYLOAD,2022-11-05 07:33:32,15.08840511,0.0001667,53.2181,157.6002,50.9137,309.2004,0.00012493,1.701e-05,0.0,0 STARLINK-3726,1 52122U 22029AL  22309.31496017  .00001701  00000-0  12493-3 0  9995,2 52122  53.2181 157.6002 0001667  50.9137 309.2004 15.08840511 36550,6917.879,95.438,540.8969999999998,538.591,0.0
52122.0,STARLINK-3726,PAYLOAD,2022-11-05 13:55:05,15.08837009,0.0002746,53.2135,156.4135,53.338,306.7864,0.00018278,2.622e-05,0.0,0 STARLINK-3726,1 52122U 22029AL  22309.57992768  .00002622  00000-0  18278-3 0  9997,2 52122  53.2135 156.4135 0002746  53.3380 306.7864 15.08837009 36597,6917.89,95.438,541.654,537.855,0.0
52122.0,STARLINK-3726,PAYLOAD,2022-11-05 20:16:39,15.08819924,0.0001759,53.2175,155.2214,53.7758,306.3396,-0.00018256,-3.191e-05,0.0,0 STARLINK-3726,1 52122U 22029AL  22309.84489600 -.00003191  00000-0 -18256-3 0  9993,2 52122  53.2175 155.2214 0001759  53.7758 306.3396 15.08819924 36639,6917.941999999999,95.439,541.024,538.59,0.0
52122.0,STARLINK-3726,PAYLOAD,2022-11-06 01:02:49,15.08822035,0.0001829,53.2181,154.3297,53.2235,306.8925,-6.306600000000001e-05,-1.291e-05,0.0,0 STARLINK-3726,1 52122U 22029AL  22310.04362269 -.00001291  00000-0 -63066-4 0  9997,2 52122  53.2181 154.3297 0001829  53.2235 306.8925 15.08822035 36663,6917.935,95.439,541.066,538.535,0.0
52122.0,STARLINK-3726,PAYLOAD,2022-11-06 18:32:03,15.08829284,0.0001746,53.218,151.0592,50.4875,309.6272,-5.5822e-05,-1.176e-05,0.0,0 STARLINK-3726,1 52122U 22029AL  22310.77226281 -.00001176  00000-0 -55822-4 0  9993,2 52122  53.2180 151.0592 0001746  50.4875 309.6272 15.08829284 36772,6917.913000000001,95.438,540.986,538.57,0.0
52122.0,STARLINK-3726,PAYLOAD,2022-11-07 00:53:35,15.08840954,0.000178,53.2181,149.8695,53.9274,306.1883,-0.00015556,-2.763e-05,0.0,0 STARLINK-3726,1 52122U 22029AL  22311.03721879 -.00002763  00000-0 -15556-3 0  9998,2 52122  53.2181 149.8695 0001780  53.9274 306.1883 15.08840954 36813,6917.877,95.437,540.974,538.511,0.0
52122.0,STARLINK-3726,PAYLOAD,2022-11-07 19:58:13,15.0883073,0.0001833,53.2179,146.3011,51.2694,308.8462,0.00016299,2.306e-05,0.0,0 STARLINK-3726,1 52122U 22029AL  22311.83210230  .00002306  00000-0  16299-3 0  9996,2 52122  53.2179 146.3011 0001833  51.2694 308.8462 15.08830730 36936,6917.909000000002,95.438,541.0419999999998,538.506,0.0
